{"type":"FeatureCollection","features":[{"type":"Feature","properties":{},"geometry":{"type":"MultiPolygon","coordinates":[[[[[-59.6,-80.0],[-60.2,-81.0],[-64.5,-80.9],[-65.7,-80.5],[-64.0,-80.3],[-61.1,-80.0],[-59.6,-80.0]]]],[[[[-159.2,-79.5],[-162.4,-79.3],[-163.1,-78.9],[-163.1,-78.2],[-160.2,-78.7],[-159.2,-79.5]]]],[[[[-45.2,-78.0],[-43.5,-79.1],[-43.3,-80.0],[-46.5,-80.6],[-50.5,-81.0],[-54.2,-80.6],[-51.9,-79.9],[-50.4,-79.2],[-49.3,-78.5],[-48.2,-78.0],[-45.2,-78.0]]]],[[[[-121.2,-73.5],[-118.7,-73.5],[-120.2,-74.1],[-122.6,-73.7],[-121.2,-73.5]]]],[[[[-125.6,-73.5],[-124.6,-73.8],[-127.3,-73.5],[-125.6,-73.5]]]],[[[[-99.0,-71.9],[-96.8,-72.0],[-97.0,-72.4],[-99.4,-72.4],[-101.8,-72.3],[-101.7,-71.7],[-99.0,-71.9]]]],[[[[-68.5,-71.0],[-68.5,-71.8],[-70.0,-72.3],[-72.4,-72.5],[-73.1,-72.2],[-75.0,-72.1],[-73.9,-71.3],[-72.1,-71.2],[-71.7,-70.3],[-71.2,-69.0],[-69.7,-69.3],[-69.1,-70.1],[-68.5,-71.0]]]],[[[[-180,-84.7],[-179.1,-84.1],[-177.1,-84.4],[-176.5,-84.2],[-176.1,-84.1],[-175.8,-84.1],[-173.1,-84.1],[-170.0,-83.9],[-168.5,-84.2],[-164.2,-84.8],[-158.1,-85.4],[-150.9,-85.3],[-145.9,-85.3],[-142.9,-84.6],[-150.1,-84.3],[-153.6,-83.7],[-153.0,-82.8],[-152.9,-82.0],[-155.3,-81.4],[-154.4,-81.2],[-150.6,-81.3],[-147.2,-80.7],[-146.8,-79.9],[-149.5,-79.4],[-153.4,-79.2],[-156.0,-78.7],[-158.1,-78.0],[-157.9,-77.0],[-155.3,-77.2],[-152.9,-77.5],[-150.0,-77.2],[-147.6,-76.6],[-146.1,-76.1],[-146.2,-75.4],[-144.3,-75.5],[-141.6,-75.1],[-138.9,-75.0],[-136.4,-74.5],[-134.4,-74.4],[-132.3,-74.3],[-129.6,-74.5],[-126.9,-74.4],[-124.0,-74.5],[-121.1,-74.5],[-118.7,-74.2],[-116.2,-74.2],[-113.9,-73.7],[-112.9,-74.4],[-111.3,-74.4],[-108.7,-74.9],[-106.1,-75.1],[-103.4,-75.0],[-100.6,-75.3],[-100.8,-74.5],[-102.5,-74.1],[-103.3,-73.4],[-102.9,-72.8],[-100.3,-72.8],[-98.1,-73.2],[-96.3,-73.6],[-93.7,-73.3],[-91.4,-73.4],[-89.2,-72.6],[-87.3,-73.2],[-85.2,-73.5],[-82.7,-73.6],[-80.7,-73.5],[-79.3,-73.5],[-76.9,-73.6],[-74.9,-73.9],[-72.8,-73.4],[-70.2,-73.1],[-68.0,-72.8],[-67.1,-72.0],[-67.6,-71.2],[-68.2,-70.5],[-68.5,-69.7],[-68.0,-69.0],[-67.4,-68.2],[-67.7,-67.3],[-66.7,-66.6],[-65.4,-65.9],[-64.2,-65.2],[-63.0,-64.6],[-61.4,-64.3],[-59.9,-64.0],[-58.6,-63.4],[-57.2,-63.5],[-58.6,-64.2],[-59.8,-64.2],[-61.3,-64.5],[-62.5,-65.1],[-62.6,-65.9],[-62.8,-66.4],[-64.3,-66.8],[-65.5,-67.6],[-65.3,-68.4],[-64.0,-68.9],[-62.8,-69.6],[-62.3,-70.4],[-61.5,-71.1],[-61.1,-72.4],[-60.7,-73.2],[-61.4,-74.1],[-63.3,-74.6],[-64.4,-75.3],[-67.2,-75.8],[-69.8,-76.2],[-72.2,-76.7],[-75.6,-76.7],[-76.9,-77.1],[-74.3,-77.6],[-74.8,-78.2],[-77.9,-78.4],[-78.0,-79.2],[-76.6,-79.9],[-73.2,-80.4],[-70.0,-81.0],[-65.7,-81.5],[-61.6,-82.0],[-58.7,-82.8],[-57.0,-82.9],[-53.6,-82.3],[-49.8,-81.7],[-44.8,-81.8],[-42.2,-81.7],[-38.2,-81.3],[-34.4,-80.9],[-30.1,-80.6],[-29.3,-80.0],[-29.7,-79.3],[-33.7,-79.5],[-35.9,-79.1],[-35.3,-78.1],[-32.2,-77.7],[-29.8,-77.1],[-27.5,-76.5],[-25.5,-76.3],[-22.5,-76.1],[-20.0,-75.7],[-17.5,-75.1],[-15.7,-74.5],[-16.5,-73.9],[-15.4,-73.1],[-13.3,-72.7],[-11.5,-72.0],[-10.3,-71.3],[-8.6,-71.7],[-7.4,-71.3],[-5.8,-71.0],[-4.3,-71.5],[-1.8,-71.2],[-0.2,-71.6],[1.9,-71.1],[4.1,-70.9],[6.3,-70.5],[7.7,-69.9],[9.5,-70.0],[10.8,-70.8],[12.4,-70.2],[14.7,-70.0],[15.9,-70.0],[18.2,-69.9],[20.4,-70.0],[21.9,-70.4],[23.7,-70.5],[26.0,-70.5],[28.1,-70.3],[30.0,-69.9],[32.0,-69.7],[33.3,-68.8],[34.9,-68.7],[36.2,-69.2],[37.9,-69.5],[39.7,-69.5],[40.9,-68.9],[42.9,-68.5],[44.9,-68.1],[46.5,-67.6],[48.3,-67.4],[49.9,-67.1],[50.9,-66.5],[52.6,-66.1],[54.5,-65.8],[56.4,-66.0],[57.3,-66.7],[58.7,-67.3],[60.6,-67.7],[62.4,-68.0],[64.1,-67.4],[66.0,-67.7],[67.9,-67.9],[69.7,-69.0],[69.6,-69.7],[67.8,-70.3],[69.1,-70.7],[68.4,-71.4],[68.7,-72.2],[71.0,-72.1],[71.9,-71.3],[73.1,-70.7],[73.9,-69.9],[75.6,-69.7],[77.6,-69.5],[78.4,-68.7],[80.1,-68.1],[81.5,-67.5],[82.8,-67.2],[84.7,-67.2],[86.8,-67.1],[88.0,-66.2],[88.8,-67.0],[90.6,-67.2],[92.6,-67.2],[94.2,-67.1],[95.8,-67.4],[97.8,-67.2],[99.7,-67.2],[100.9,-66.6],[102.8,-65.6],[104.2,-66.0],[106.2,-66.9],[108.1,-67.0],[110.2,-66.7],[111.7,-66.1],[113.6,-65.9],[114.9,-66.4],[116.7,-66.7],[118.6,-67.2],[120.9,-67.2],[122.3,-66.6],[124.1,-66.6],[126.1,-66.6],[127.9,-66.7],[129.7,-66.6],[131.8,-66.4],[133.9,-66.3],[135.0,-65.7],[135.7,-65.6],[136.2,-66.4],[137.5,-67.0],[139.9,-66.9],[142.1,-66.8],[144.4,-66.8],[146.2,-67.2],[146.6,-67.9],[148.8,-68.4],[151.5,-68.7],[153.6,-68.9],[155.2,-68.8],[156.8,-69.4],[159.2,-69.6],[160.8,-70.2],[162.7,-70.7],[164.9,-70.8],[167.3,-70.8],[169.5,-71.2],[171.2,-71.7],[170.6,-72.4],[169.8,-73.2],[168.0,-73.8],[166.1,-74.4],[165.0,-75.1],[163.8,-75.9],[163.5,-76.7],[164.1,-77.5],[164.7,-78.2],[167.0,-78.8],[163.7,-79.1],[160.9,-79.7],[160.3,-80.6],[161.1,-81.3],[162.5,-82.1],[165.1,-82.7],[168.9,-83.3],[172.3,-84.0],[173.2,-84.4],[178.3,-84.5]]]],[[[[-67.8,-53.8],[-65.1,-54.7],[-66.5,-55.2],[-67.3,-55.3],[-69.2,-55.5],[-71.0,-55.1],[-73.3,-54.0],[-73.8,-53.0],[-71.1,-54.1],[-70.3,-52.9],[-68.6,-52.6],[-67.8,-53.8]]]],[[[[-58.5,-51.1],[-58.0,-51.9],[-59.8,-51.8],[-61.2,-51.8],[-59.2,-51.5]]]],[[[[70.3,-49.7],[68.7,-49.2],[68.9,-48.6],[70.5,-49.1],[70.3,-49.7]]]],[[[[145.4,-40.8],[146.9,-41.0],[148.3,-40.9],[148.0,-42.4],[147.6,-42.9],[146.7,-43.6],[145.4,-42.7],[144.7,-41.2],[145.4,-40.8]]]],[[[[173.0,-40.9],[174.0,-40.9],[174.2,-41.8],[173.2,-43.0],[173.1,-43.9],[171.5,-44.2],[170.6,-45.9],[169.3,-46.6],[167.8,-46.3],[166.5,-45.9],[168.3,-44.1],[169.7,-43.6],[171.1,-42.5],[172.0,-41.5],[172.8,-40.5]]]],[[[[174.6,-36.2],[175.4,-36.5],[176.0,-37.6],[177.4,-38.0],[178.5,-37.7],[178.0,-39.2],[176.9,-39.4],[176.9,-40.1],[176.0,-41.3],[175.1,-41.4],[175.2,-40.5],[173.8,-39.5],[174.6,-38.8],[174.7,-37.4],[174.3,-36.5],[173.1,-35.2],[173.0,-34.5],[174.3,-35.3]]]],[[[[167.1,-22.2],[166.2,-22.1],[164.8,-21.1],[164.0,-20.1],[165.0,-20.5],[165.8,-21.1],[167.1,-22.2]]]],[[[[178.4,-17.3],[178.6,-18.2],[177.4,-18.2],[177.7,-17.4],[178.4,-17.3]]]],[[[[-180,-16.6],[178.7,-17.0],[179.1,-16.4],[-180,-16.1]],[[-180,-16.1],[-179.9,-16.5]]]],[[[[167.8,-16.5],[167.2,-16.2],[167.8,-16.5]]]],[[[[167.1,-14.9],[167.0,-15.6],[166.7,-15.4],[167.1,-14.9]]]],[[[[50.1,-13.6],[50.5,-15.2],[50.2,-16.0],[49.7,-15.7],[49.8,-16.9],[49.4,-18.0],[48.5,-20.5],[47.5,-23.8],[46.3,-25.2],[44.8,-25.3],[43.8,-24.5],[43.3,-22.8],[43.4,-21.3],[43.9,-20.8],[44.5,-19.4],[44.0,-18.3],[44.3,-16.9],[44.9,-16.2],[45.9,-15.8],[46.9,-15.2],[48.0,-14.1],[48.3,-13.8],[48.9,-12.5],[49.5,-12.5],[50.1,-13.6]]]],[[[[143.6,-13.8],[144.6,-14.2],[145.4,-15.0],[145.5,-16.3],[145.9,-16.9],[146.1,-18.3],[147.5,-19.5],[148.8,-20.4],[149.3,-21.3],[150.1,-22.1],[150.7,-22.4],[151.6,-24.1],[152.9,-25.3],[153.2,-26.6],[153.6,-28.1],[153.3,-29.5],[153.1,-30.9],[152.4,-32.6],[151.3,-33.8],[150.7,-35.2],[150.1,-36.4],[150.0,-37.4],[148.3,-37.8],[146.9,-38.6],[145.5,-38.6],[145.0,-37.9],[143.6,-38.8],[142.2,-38.4],[140.6,-38.0],[139.8,-36.6],[139.1,-35.7],[138.4,-35.1],[137.7,-35.1],[137.4,-34.7],[137.9,-33.6],[137.0,-33.8],[136.0,-34.9],[135.2,-33.9],[134.1,-32.8],[133.0,-32.0],[131.3,-31.5],[128.2,-31.9],[126.1,-32.2],[124.2,-33.0],[123.7,-33.9],[122.2,-34.0],[120.6,-33.9],[119.3,-34.5],[118.5,-34.7],[117.3,-35.0],[115.6,-34.4],[115.0,-33.6],[115.7,-33.3],[115.8,-32.2],[115.2,-30.6],[115.0,-29.5],[114.6,-28.5],[114.0,-27.3],[113.3,-26.1],[113.4,-25.6],[114.2,-26.3],[113.7,-25.0],[113.4,-24.4],[113.7,-23.6],[113.7,-22.5],[114.2,-22.5],[115.5,-21.5],[116.7,-20.7],[117.4,-20.7],[118.8,-20.3],[119.3,-20.0],[120.9,-19.7],[121.7,-18.7],[122.3,-17.8],[123.0,-16.4],[123.9,-17.1],[123.8,-16.1],[124.4,-15.6],[125.2,-14.7],[125.7,-14.2],[126.1,-14.1],[127.1,-13.8],[128.4,-14.9],[129.6,-15.0],[129.9,-13.6],[130.2,-13.1],[131.2,-12.2],[132.6,-12.1],[131.8,-11.3],[133.0,-11.4],[134.4,-12.0],[135.3,-12.2],[136.3,-12.0],[137.0,-12.4],[136.3,-13.3],[136.1,-13.7],[135.4,-14.7],[136.3,-15.6],[137.6,-16.2],[138.6,-16.8],[139.3,-17.4],[140.9,-17.4],[141.3,-16.4],[141.7,-15.0],[141.6,-14.3],[141.7,-12.9],[141.7,-12.4],[142.1,-11.3],[142.5,-10.7],[142.9,-11.8],[143.2,-12.3],[143.6,-13.4]]]],[[[[162.1,-10.5],[161.7,-10.8],[161.9,-10.4]]]],[[[[120.7,-10.2],[119.0,-9.6],[120.4,-9.7],[120.7,-10.2]]]],[[[[160.9,-9.9],[159.9,-9.8],[159.7,-9.2],[160.7,-9.6]]]],[[[[161.7,-9.6],[160.8,-8.9],[160.9,-8.3],[161.7,-9.6]]]],[[[[124.4,-10.1],[123.5,-10.2],[124.0,-9.3],[125.1,-8.7],[126.6,-8.4],[127.3,-8.4],[125.9,-9.1],[124.4,-10.1]]]],[[[[117.9,-8.1],[118.9,-8.3],[118.0,-8.9],[116.7,-9.0],[117.6,-8.4]]]],[[[[122.9,-8.1],[121.3,-8.9],[119.9,-8.4],[121.3,-8.5],[122.9,-8.1]]]],[[[[159.9,-8.3],[159.1,-8.1],[158.2,-7.4],[158.8,-7.6],[159.9,-8.3]]]],[[[[157.5,-7.3],[156.9,-7.2],[156.5,-6.6],[157.5,-7.3]]]],[[[[108.6,-6.8],[110.8,-6.5],[113.0,-7.6],[115.7,-8.4],[113.5,-8.3],[111.5,-8.3],[109.4,-7.7],[108.3,-7.8],[106.3,-6.9],[106.1,-5.9],[108.1,-6.3],[108.6,-6.8]]]],[[[[134.7,-6.2],[134.1,-6.1],[134.5,-5.4],[134.7,-6.2]]]],[[[[155.9,-6.8],[155.2,-6.5],[154.5,-5.1],[154.8,-5.3],[155.5,-6.2],[155.9,-6.8]]]],[[[[152.0,-5.5],[151.3,-5.8],[150.2,-6.3],[148.9,-6.0],[148.4,-5.4],[149.8,-5.5],[150.1,-5.0],[150.8,-5.5],[151.6,-4.8],[152.1,-4.1],[152.3,-4.9]]]],[[[[127.2,-3.5],[126.2,-3.6],[127.0,-3.1]]]],[[[[130.5,-3.1],[130.0,-3.4],[128.6,-3.4],[128.1,-2.8],[130.5,-3.1]]]],[[[[153.1,-4.5],[152.6,-4.2],[152.0,-3.5],[150.7,-2.7],[151.5,-2.8],[152.2,-3.2],[153.0,-4.0]]]],[[[[134.1,-1.2],[135.5,-3.4],[137.4,-1.7],[139.2,-2.1],[141.0,-2.6],[144.6,-3.9],[145.8,-4.9],[147.6,-6.1],[147.0,-6.7],[148.1,-8.0],[149.3,-9.1],[150.0,-9.7],[150.8,-10.3],[150.0,-10.7],[148.9,-10.3],[147.1,-9.5],[146.0,-8.1],[143.9,-7.9],[143.4,-9.0],[142.1,-9.2],[140.1,-8.3],[138.9,-8.4],[138.0,-7.6],[138.4,-6.2],[136.0,-4.5],[133.7,-3.5],[133.0,-4.1],[132.8,-3.3],[133.1,-2.5],[133.7,-2.2],[131.8,-1.6],[130.5,-0.9],[132.4,-0.4],[134.1,-1.2]]]],[[[[125.2,1.4],[123.7,0.2],[121.1,0.4],[120.0,-0.5],[121.5,-1.0],[123.3,-1.1],[122.4,-1.5],[122.5,-3.2],[123.2,-4.7],[122.6,-5.6],[122.7,-4.5],[121.5,-4.6],[120.9,-3.6],[120.3,-2.9],[120.4,-5.5],[119.4,-5.4],[119.5,-3.5],[118.8,-2.8],[119.3,-1.4],[120.0,0.6],[121.7,1.0],[124.1,0.9],[125.2,1.4]]]],[[[[128.7,1.1],[128.1,0.4],[128.4,-0.8],[127.7,-0.3],[127.6,1.8],[128.0,1.6],[128.7,1.1]]]],[[[[105.8,-5.9],[103.9,-5.0],[102.2,-3.6],[100.9,-2.1],[99.3,0.2],[98.6,1.8],[97.2,3.3],[95.4,5.0],[95.9,5.4],[98.4,4.3],[99.7,3.2],[101.7,2.1],[103.1,0.6],[103.4,-0.7],[104.4,-1.1],[104.9,-2.3],[106.1,-3.1],[105.8,-5.9]]]],[[[[117.9,1.8],[117.8,0.8],[117.5,-0.8],[116.5,-2.5],[116.0,-3.7],[114.5,-3.5],[113.3,-3.1],[111.7,-3.0],[110.2,-2.9],[109.6,-1.3],[109.0,0.4],[109.7,2.0],[111.2,1.9],[111.8,2.9],[113.7,3.9],[114.6,4.9],[116.2,6.1],[117.1,6.9],[117.7,6.0],[119.2,5.4],[118.4,5.0],[117.9,4.1],[118.0,2.3]]]],[[[[126.4,8.4],[126.5,7.2],[125.8,7.3],[125.7,6.0],[124.2,6.2],[124.2,7.4],[123.3,7.4],[122.1,6.9],[122.3,8.0],[123.5,8.7],[124.6,8.5],[125.5,9.0],[126.2,9.3],[126.4,8.4]]]],[[[[81.2,6.2],[79.9,6.8],[80.1,9.8],[81.3,8.6],[81.6,6.5]]]],[[[[-60.9,10.1],[-62.0,10.1],[-61.7,10.8],[-60.9,10.9]]]],[[[[124.0,10.3],[123.3,9.3],[122.4,9.7],[122.8,10.3],[123.5,10.9],[124.1,11.2]]]],[[[[118.5,9.3],[117.7,9.1],[119.0,10.4],[119.7,10.6],[118.5,9.3]]]],[[[[121.9,11.9],[123.1,11.6],[122.6,10.7],[122.0,10.9],[121.9,11.9]]]],[[[[125.5,12.2],[125.0,11.3],[125.3,10.4],[124.8,10.8],[124.3,11.5],[124.9,11.8],[125.2,12.5]]]],[[[[121.5,13.1],[120.8,12.7],[121.2,13.4]]]],[[[[121.3,18.5],[122.2,18.5],[122.2,17.8],[122.3,16.3],[121.5,15.1],[122.3,14.2],[124.0,13.8],[124.2,13.0],[123.3,13.0],[122.7,13.2],[121.1,13.6],[120.7,14.3],[120.7,14.8],[120.1,15.0],[119.9,16.4],[120.4,17.6],[121.3,18.5]]]],[[[[-65.6,18.2],[-66.6,18.0],[-67.2,18.4],[-66.3,18.5],[-65.6,18.2]]]],[[[[-76.9,17.9],[-77.8,17.9],[-78.2,18.5],[-77.6,18.5],[-76.4,18.2],[-76.9,17.9]]]],[[[[-72.6,19.9],[-71.6,19.9],[-70.2,19.6],[-69.8,19.3],[-69.3,19.0],[-68.3,18.6],[-69.2,18.4],[-70.0,18.4],[-70.5,18.2],[-71.0,18.3],[-71.7,17.8],[-72.4,18.2],[-73.5,18.2],[-74.5,18.3],[-73.4,18.5],[-72.3,18.7],[-72.8,19.5],[-73.2,19.9]]]],[[[[110.3,18.7],[108.7,18.5],[109.1,19.8],[110.8,20.1],[110.6,19.3]]]],[[[[-155.5,19.1],[-155.9,19.1],[-156.1,19.7],[-155.9,20.0],[-155.9,20.3],[-155.4,20.1],[-155.1,19.9],[-154.8,19.5],[-155.5,19.1]]]],[[[[-156.1,20.6],[-156.6,20.8],[-156.7,20.9],[-156.3,20.9],[-156.1,20.6]]]],[[[[-156.8,21.2],[-157.3,21.1],[-156.8,21.2]]]],[[[[-157.7,21.3],[-157.8,21.3],[-158.3,21.5],[-158.0,21.7],[-157.7,21.3]]]],[[[[-159.3,22.0],[-159.8,22.1],[-159.6,22.2],[-159.3,22.0]]]],[[[[-79.7,22.8],[-78.3,22.5],[-77.1,21.7],[-76.2,21.2],[-75.7,20.7],[-74.2,20.3],[-75.0,19.9],[-76.3,20.0],[-77.1,20.4],[-78.1,20.7],[-78.7,21.6],[-80.2,21.8],[-81.8,22.2],[-81.8,22.6],[-83.5,22.2],[-84.1,21.9],[-85.0,21.9],[-84.2,22.6],[-83.3,23.0],[-82.3,23.2],[-80.6,23.1]]]],[[[[-77.5,23.8],[-78.0,24.3],[-78.2,25.2],[-77.5,24.3]]]],[[[[121.2,22.8],[120.2,22.8],[120.7,24.5],[122.0,25.0],[121.2,22.8]]]],[[[[-77.8,26.6],[-79.0,26.8],[-77.8,26.8]]]],[[[[-77.0,26.6],[-77.4,26.0],[-77.8,26.9],[-77.0,26.6]]]],[[[[134.6,34.1],[134.2,33.2],[133.3,33.3],[132.4,33.0],[132.9,34.1],[133.9,34.4]]]],[[[[34.6,35.7],[34.0,35.1],[33.0,34.6],[32.3,35.1],[32.8,35.1],[33.7,35.4]]]],[[[[23.7,35.7],[25.0,35.4],[25.7,35.2],[26.2,35.0],[24.7,35.1],[23.7,35.7]]]],[[[[15.5,38.2],[15.3,37.1],[14.3,37.0],[12.4,37.6],[13.7,38.0],[15.5,38.2]]]],[[[[9.2,41.2],[9.7,39.2],[8.8,38.9],[8.4,40.4],[8.7,40.9]]]],[[[[141.0,37.1],[140.8,35.8],[139.0,34.7],[135.8,33.5],[135.1,34.6],[132.2,33.9],[132.0,33.1],[130.7,31.0],[130.4,32.3],[129.4,33.3],[130.9,34.2],[132.6,35.4],[135.7,35.5],[137.4,36.8],[139.4,38.2],[139.9,40.6],[141.4,41.4],[141.9,39.2],[141.0,37.1]]]],[[[[9.6,42.2],[8.8,41.6],[8.7,42.6],[9.6,42.2]]]],[[[[143.9,44.2],[145.3,44.4],[144.1,43.0],[141.6,42.7],[140.0,41.6],[140.3,43.3],[141.7,44.8],[143.1,44.5]]]],[[[[-63.7,46.5],[-62.0,46.4],[-62.9,46.0],[-64.4,46.7],[-63.7,46.5]]]],[[[[-61.8,49.1],[-63.6,49.4],[-64.2,50.0],[-61.8,49.3]]]],[[[[-123.5,48.5],[-125.7,48.8],[-126.8,49.5],[-128.1,50.0],[-128.4,50.8],[-126.7,50.4],[-125.4,49.9],[-123.9,49.1]]]],[[[[-56.1,50.7],[-56.1,50.1],[-55.8,49.6],[-54.5,49.6],[-53.8,48.5],[-53.0,48.2],[-53.1,46.7],[-54.2,46.8],[-54.2,47.8],[-56.0,46.9],[-56.3,47.6],[-59.3,47.6],[-58.8,48.3],[-58.4,49.1],[-56.7,51.3],[-55.4,51.6],[-56.1,50.7]]]],[[[[-132.7,54.0],[-132.1,53.0],[-131.6,52.2],[-132.6,53.1],[-133.2,53.9],[-132.7,54.0]]]],[[[[143.6,50.7],[143.2,49.3],[143.5,46.8],[142.7,46.7],[141.9,46.8],[141.9,48.9],[142.2,51.0],[141.7,53.3],[142.2,54.2],[142.9,53.7],[143.2,51.8]]]],[[[[-6.8,52.3],[-10.0,51.8],[-9.7,53.9],[-7.6,55.1],[-5.7,54.6],[-6.0,53.2]]]],[[[[12.7,55.6],[11.0,55.4],[12.4,56.1]]]],[[[[-153.0,57.1],[-154.5,57.0],[-153.8,57.8],[-152.6,57.9],[-153.0,57.1]]]],[[[[-3.0,58.6],[-3.1,57.7],[-2.2,56.9],[-2.1,55.9],[-0.4,54.5],[0.5,52.9],[1.6,52.1],[1.4,51.3],[-0.8,50.8],[-3.0,50.7],[-4.5,50.3],[-5.8,50.2],[-3.4,51.4],[-5.3,52.0],[-4.8,52.8],[-3.1,53.4],[-3.6,54.6],[-5.1,55.1],[-5.0,55.8],[-5.6,56.3],[-5.8,57.8],[-4.2,58.6]]]],[[[[-165.6,59.9],[-166.8,59.9],[-166.5,60.4],[-165.6,59.9]]]],[[[[-79.3,62.2],[-80.1,61.7],[-80.3,62.1],[-79.5,62.4]]]],[[[[-81.9,62.7],[-83.8,62.2],[-83.2,62.9],[-81.9,62.7]]]],[[[[-171.7,63.8],[-170.5,63.7],[-168.7,63.3],[-169.5,63.0],[-170.7,63.4],[-171.8,63.4]]]],[[[[-85.2,65.7],[-84.5,65.4],[-82.8,64.8],[-81.6,64.0],[-80.1,63.7],[-82.5,63.7],[-84.1,63.6],[-85.9,63.6],[-86.4,64.0],[-85.9,65.7]]]],[[[[-14.5,66.5],[-13.6,65.1],[-17.8,63.7],[-20.0,63.6],[-21.8,64.4],[-22.2,65.1],[-24.3,65.6],[-22.1,66.4],[-19.1,66.3],[-16.2,66.5]]]],[[[[-75.9,67.1],[-77.2,67.6],[-75.9,68.3],[-75.1,67.6],[-75.9,67.1]]]],[[[[-180,69.0],[-174.9,67.2],[-174.3,66.3],[-171.9,66.9],[-170.9,65.5],[-172.6,64.5],[-173.9,64.3],[-176.0,64.9],[-177.2,65.5],[-178.9,65.7],[-179.9,65.9],[-180,65.0]],[[-180,65.0],[178.7,64.5],[178.3,64.1],[179.4,63.0],[179.2,62.3],[174.6,61.8],[172.1,60.9],[170.3,59.9],[166.3,59.8],[164.9,59.7],[163.2,59.2],[162.1,57.8],[163.1,56.2],[161.7,55.3],[160.4,54.3],[158.5,53.0],[156.8,51.0],[156.0,53.2],[155.9,56.8],[156.8,57.8],[160.1,59.3],[163.7,61.1],[163.3,62.5],[160.1,60.5],[156.7,61.4],[155.0,59.1],[151.3,58.8],[149.8,59.7],[145.5,59.3],[139.0,57.1],[136.7,54.6],[138.2,53.8],[139.9,54.2],[141.4,52.2],[140.5,50.0],[138.6,47.0],[136.9,45.1],[134.9,43.4],[132.9,42.8],[130.9,42.6],[130.4,42.3],[129.7,41.6],[129.2,40.7],[128.6,40.2],[127.5,39.8],[127.4,39.2],[128.4,38.6],[129.5,36.8],[129.1,35.1],[127.4,34.5],[126.4,34.9],[126.1,36.7],[126.2,37.7],[125.6,37.8],[125.2,37.9],[124.7,38.1],[125.2,38.7],[125.4,39.4],[124.7,39.7],[122.9,39.6],[121.1,38.9],[121.4,39.8],[121.6,40.9],[119.6,39.9],[118.0,39.2],[118.1,38.1],[118.9,37.4],[120.8,37.9],[122.4,37.5],[121.1,36.7],[119.7,35.6],[120.2,34.4],[121.2,32.5],[121.9,30.9],[121.5,30.1],[121.9,29.0],[121.1,28.1],[119.6,25.7],[117.3,23.6],[114.8,22.7],[113.8,22.5],[111.8,21.6],[110.4,20.3],[109.6,21.0],[108.5,21.7],[106.7,20.7],[105.7,19.1],[107.4,16.7],[108.9,15.3],[109.2,11.7],[107.2,10.4],[105.2,8.6],[105.1,9.9],[103.5,10.6],[102.6,12.2],[100.8,12.6],[100.1,13.4],[99.5,10.8],[99.2,9.2],[100.3,8.3],[101.0,6.9],[102.1,6.2],[103.0,5.5],[103.4,4.2],[103.4,3.4],[103.9,2.5],[104.2,1.3],[102.6,2.0],[101.3,3.3],[100.6,4.8],[100.3,6.0],[99.7,6.8],[99.0,7.9],[98.3,7.8],[98.3,9.0],[98.5,10.7],[98.4,12.0],[98.1,13.6],[97.6,16.1],[96.5,16.4],[94.8,15.8],[94.5,17.3],[93.5,19.4],[93.1,19.9],[92.1,21.2],[91.8,22.2],[90.5,22.8],[90.3,21.8],[89.7,21.9],[89.0,22.1],[88.2,21.7],[87.0,20.7],[85.1,19.5],[83.2,17.7],[82.2,16.6],[80.8,16.0],[80.0,15.1],[80.3,13.0],[79.9,10.4],[78.9,9.5],[78.3,8.9],[77.5,8.0],[76.1,10.3],[75.4,11.8],[74.6,14.0],[73.5,16.0],[72.8,19.2],[72.6,21.4],[70.5,20.9],[69.6,22.5],[68.2,23.7],[67.1,24.7],[64.5,25.2],[61.5,25.1],[58.5,25.6],[57.0,27.0],[55.7,27.0],[53.5,26.8],[51.5,27.9],[50.1,30.1],[48.9,30.3],[48.0,30.0],[48.1,29.3],[48.8,27.7],[49.5,27.1],[50.2,26.3],[50.2,25.6],[50.7,25.0],[50.7,25.5],[51.3,26.1],[51.6,25.2],[51.6,24.2],[51.8,24.0],[53.4,24.2],[54.7,24.8],[56.1,26.1],[56.5,26.3],[56.3,25.7],[56.8,24.2],[58.1,23.7],[59.2,23.0],[59.8,22.5],[59.4,21.7],[58.9,21.1],[58.0,20.5],[57.7,19.7],[57.7,18.9],[56.6,18.6],[56.3,17.9],[55.3,17.6],[54.8,16.9],[53.6,16.7],[52.4,16.4],[52.2,15.6],[49.6,14.7],[48.2,13.9],[47.4,13.6],[45.9,13.3],[45.4,13.0],[45.0,12.7],[44.2,12.6],[43.2,13.2],[43.1,14.1],[42.6,15.2],[42.7,15.7],[42.8,16.3],[42.3,17.1],[41.8,17.8],[40.9,19.5],[39.8,20.3],[39.0,22.0],[38.5,23.7],[37.5,24.3],[37.2,25.1],[36.6,25.8],[35.6,27.4],[34.6,28.1],[34.8,29.0],[34.9,29.5],[34.4,28.3],[33.9,27.6],[33.1,28.4],[32.3,29.8],[33.3,27.7],[34.5,25.6],[35.7,23.9],[35.5,23.1],[36.9,22.0],[37.0,20.8],[37.5,18.6],[38.4,18.0],[39.3,15.9],[41.2,14.5],[42.3,13.3],[43.1,12.7],[43.3,12.0],[43.1,11.5],[43.7,10.9],[44.6,10.4],[46.6,10.8],[48.0,11.2],[48.9,11.4],[49.7,11.6],[50.7,12.0],[51.1,11.7],[51.0,10.6],[50.6,9.2],[49.5,6.8],[47.7,4.2],[45.6,2.0],[43.1,0.3],[41.8,-1.4],[40.9,-2.1],[40.3,-2.6],[39.8,-3.7],[39.2,-4.7],[38.8,-6.5],[39.5,-7.1],[39.3,-8.0],[39.5,-9.1],[40.3,-10.3],[40.4,-11.8],[40.6,-14.2],[40.5,-15.4],[39.5,-16.7],[37.4,-17.6],[35.9,-18.8],[34.8,-19.8],[35.2,-21.3],[35.4,-22.1],[35.5,-23.1],[35.6,-23.7],[35.0,-24.5],[33.0,-25.4],[32.7,-26.1],[32.8,-26.7],[32.5,-28.3],[31.5,-29.3],[30.9,-29.9],[30.1,-31.1],[28.2,-32.8],[26.4,-33.6],[25.8,-33.9],[24.7,-34.0],[23.0,-33.9],[21.5,-34.3],[20.1,-34.8],[19.2,-34.5],[18.4,-34.0],[18.2,-33.9],[17.9,-32.6],[18.2,-31.7],[17.1,-29.9],[16.3,-28.6],[15.2,-27.1],[14.7,-25.4],[14.4,-22.7],[13.9,-21.7],[12.8,-19.7],[11.8,-18.1],[11.6,-16.7],[12.1,-14.9],[12.5,-13.5],[13.3,-12.5],[13.7,-11.3],[13.4,-10.4],[12.9,-9.2],[13.2,-8.6],[12.7,-6.9],[12.3,-6.1],[11.9,-5.0],[10.1,-3.0],[8.8,-1.1],[9.0,-0.5],[9.5,1.0],[9.6,2.3],[9.4,3.7],[8.7,4.4],[8.5,4.8],[7.1,4.5],[5.9,4.3],[5.0,5.6],[3.6,6.3],[1.9,6.1],[-0.5,5.3],[-2.0,4.7],[-3.3,5.0],[-4.6,5.2],[-6.5,4.7],[-7.7,4.4],[-9.0,4.8],[-10.8,6.1],[-11.7,6.9],[-12.9,7.8],[-13.2,8.9],[-14.1,9.9],[-14.6,10.2],[-14.8,10.9],[-15.7,11.5],[-16.3,11.8],[-16.6,12.2],[-16.8,13.2],[-17.1,14.4],[-17.2,14.9],[-16.5,16.1],[-16.3,17.2],[-16.3,19.1],[-16.3,20.1],[-17.1,21.0],[-17.0,21.9],[-16.3,22.7],[-16.0,23.7],[-15.1,24.5],[-14.8,25.6],[-13.8,26.6],[-12.6,28.0],[-10.9,28.8],[-9.6,29.9],[-9.4,32.0],[-8.7,33.2],[-6.9,34.1],[-5.9,35.8],[-4.6,35.3],[-2.6,35.2],[-1.2,35.7],[0.5,36.3],[3.2,36.8],[5.3,36.7],[7.3,37.1],[8.4,36.9],[10.2,37.2],[11.0,37.1],[10.6,36.4],[10.9,35.7],[10.2,34.3],[10.9,33.8],[11.5,33.1],[13.1,32.9],[15.2,32.3],[16.6,31.2],[19.1,30.3],[20.1,31.0],[20.1,32.2],[21.5,32.8],[23.2,32.2],[23.9,32.0],[25.2,31.6],[27.5,31.3],[28.9,30.9],[30.1,31.5],[31.7,31.4],[32.2,31.3],[33.8,31.0],[34.6,31.5],[34.8,32.1],[35.1,33.1],[35.5,33.9],[36.0,34.6],[36.1,35.8],[36.2,36.7],[34.7,36.8],[32.5,36.1],[30.6,36.7],[29.7,36.1],[27.6,36.7],[26.3,38.2],[26.2,39.5],[28.8,40.5],[31.1,41.1],[33.5,42.0],[36.9,41.3],[39.5,41.1],[41.6,41.5],[41.5,42.6],[40.3,43.1],[38.7,44.3],[36.7,45.2],[38.2,46.2],[39.1,47.0],[38.2,47.1],[36.8,46.7],[35.0,46.3],[35.5,45.4],[36.3,45.1],[33.9,44.4],[33.5,45.0],[32.6,45.5],[33.3,46.1],[31.7,46.7],[30.4,46.0],[29.6,45.0],[28.8,44.9],[28.0,43.3],[28.0,42.0],[29.0,41.3],[27.6,41.0],[26.4,40.2],[26.1,40.8],[24.9,40.9],[24.4,40.1],[23.3,40.0],[22.6,40.3],[23.4,39.2],[23.5,38.5],[24.0,37.7],[23.4,37.4],[23.2,36.4],[21.7,36.8],[21.1,38.3],[20.2,39.3],[20.0,39.7],[19.4,40.3],[19.4,41.4],[19.4,41.9],[18.9,42.3],[17.5,42.8],[16.0,43.5],[15.4,44.3],[14.9,45.1],[14.0,44.8],[13.7,45.5],[13.9,45.6],[12.3,45.4],[12.3,44.6],[13.5,43.6],[15.1,42.0],[16.2,41.7],[16.8,41.2],[18.4,40.4],[18.3,39.8],[16.9,40.4],[17.2,39.4],[16.6,38.8],[15.7,37.9],[15.9,38.8],[15.7,39.5],[15.0,40.2],[14.1,40.8],[12.9,41.3],[11.2,42.4],[10.2,43.9],[8.9,44.4],[7.8,43.8],[6.5,43.1],[3.1,43.1],[3.0,41.9],[0.8,41.0],[0.1,40.1],[0.1,38.7],[-0.7,37.6],[-2.1,36.7],[-4.4,36.7],[-5.4,35.9],[-6.2,36.4],[-7.5,37.1],[-8.4,37.0],[-8.7,37.7],[-9.3,38.4],[-9.4,39.4],[-9.0,40.2],[-8.8,41.2],[-9.0,41.9],[-9.4,43.0],[-6.8,43.6],[-4.3,43.4],[-1.9,43.4],[-1.2,46.0],[-3.0,47.6],[-4.6,48.7],[-1.6,48.6],[-1.0,49.3],[1.6,50.9],[3.3,51.3],[4.7,53.1],[6.9,53.5],[7.9,53.7],[8.8,54.0],[8.5,55.0],[8.1,56.5],[8.5,57.1],[9.8,57.4],[10.5,57.2],[10.4,56.6],[10.7,56.1],[9.6,55.5],[9.9,54.6],[10.9,54.0],[12.5,54.5],[14.1,53.8],[16.4,54.5],[18.6,54.7],[19.7,54.4],[21.3,55.2],[21.1,56.8],[22.5,57.8],[24.1,57.0],[24.4,58.4],[23.4,58.6],[24.6,59.5],[26.9,59.4],[29.1,60.0],[26.3,60.4],[22.9,59.8],[21.3,60.7],[21.1,62.6],[22.4,63.8],[25.4,65.1],[23.9,66.0],[21.2,65.0],[19.8,63.6],[17.1,61.3],[18.8,60.1],[16.8,58.7],[15.9,56.1],[14.1,55.4],[12.6,56.3],[11.0,58.9],[8.4,58.3],[5.7,58.6],[5.0,62.0],[8.6,63.5],[12.4,65.9],[16.4,68.6],[21.4,70.3],[24.5,71.0],[28.2,71.2],[30.0,70.2],[32.1,69.9],[36.5,69.1],[41.1,67.5],[40.0,66.3],[33.9,66.8],[34.8,65.9],[36.2,64.1],[37.1,64.3],[37.2,65.1],[40.4,64.8],[42.1,66.5],[44.0,66.1],[43.7,67.4],[43.5,68.6],[46.8,67.7],[45.6,67.0],[47.9,66.9],[50.2,68.0],[54.5,68.8],[54.7,68.1],[57.3,68.5],[59.9,68.3],[60.0,69.5],[63.5,69.5],[68.5,68.1],[68.2,69.1],[66.9,69.5],[66.7,70.7],[68.5,71.9],[69.9,73.0],[72.8,72.2],[72.5,71.1],[72.6,69.0],[73.2,67.7],[72.4,66.2],[73.9,66.8],[75.1,67.8],[74.9,69.0],[73.6,69.6],[73.1,71.4],[74.7,72.8],[75.7,72.3],[76.4,71.2],[77.6,72.3],[81.5,71.7],[80.5,73.6],[84.7,73.8],[86.0,74.5],[88.3,75.1],[92.9,75.8],[95.9,76.1],[98.9,76.4],[101.0,76.9],[104.4,77.7],[104.7,77.1],[107.2,76.5],[111.1,76.7],[114.1,75.8],[112.8,75.0],[109.4,74.2],[112.1,73.8],[113.5,73.3],[115.6,73.8],[119.0,73.1],[123.3,73.7],[127.0,73.6],[129.1,72.4],[129.7,71.2],[132.3,71.8],[135.6,71.7],[138.2,71.6],[139.1,72.4],[149.5,72.2],[153.0,70.8],[159.0,70.9],[159.7,69.7],[162.3,69.6],[165.9,69.5],[169.6,68.7],[170.0,69.7],[173.6,69.8],[178.6,69.4]]],[[[49.1,41.3],[50.1,40.5],[49.6,40.2],[49.2,39.0],[48.9,38.3],[50.1,37.4],[52.3,36.7],[53.9,37.2],[53.9,39.0],[53.4,40.0],[52.9,40.9],[54.7,41.0],[53.7,42.1],[52.8,41.1],[52.4,42.0],[52.5,42.8],[50.9,44.0],[50.3,44.6],[51.3,45.2],[53.0,45.3],[53.0,46.9],[51.2,47.0],[49.1,46.4],[47.7,45.6],[47.6,43.7],[48.6,41.8]]]],[[[[-95.6,69.1],[-97.6,69.1],[-99.8,69.4],[-98.2,70.1],[-96.6,69.7],[-95.6,69.1]]]],[[[[-180,71.5],[178.9,70.8],[-180,71.5]]]],[[[[-180,71.5],[-179.0,71.6],[-177.7,71.1],[-180,70.8]]]],[[[[-90.5,69.5],[-89.2,69.3],[-88.3,67.9],[-86.3,67.9],[-85.5,69.9],[-82.6,69.7],[-81.2,68.7],[-81.3,67.6],[-83.3,66.4],[-85.8,66.6],[-87.0,65.2],[-88.5,64.1],[-90.7,63.6],[-91.9,62.8],[-94.2,60.9],[-94.7,58.9],[-92.8,57.8],[-90.9,57.3],[-88.0,56.5],[-86.1,55.7],[-83.4,55.2],[-82.4,54.3],[-81.4,52.2],[-79.1,51.5],[-79.1,54.1],[-78.2,55.1],[-76.5,56.5],[-77.3,58.1],[-77.3,59.9],[-78.1,62.3],[-75.7,62.3],[-73.8,62.4],[-71.7,61.5],[-69.6,61.1],[-69.3,59.0],[-67.7,58.2],[-65.2,59.9],[-63.8,59.4],[-61.4,57.0],[-60.5,55.8],[-58.0,54.9],[-56.9,53.8],[-55.8,53.3],[-56.4,51.8],[-58.8,51.1],[-61.7,50.1],[-65.4,50.3],[-67.2,49.5],[-70.0,47.7],[-70.3,47.0],[-66.6,49.1],[-64.2,48.7],[-64.8,47.0],[-63.2,45.7],[-60.5,47.0],[-59.8,45.9],[-63.3,44.7],[-65.4,43.5],[-66.2,44.5],[-66.0,45.3],[-67.0,44.8],[-69.1,44.0],[-70.7,43.0],[-70.8,42.3],[-70.1,41.8],[-69.9,41.9],[-70.6,41.5],[-71.9,41.3],[-72.9,41.2],[-72.2,41.1],[-73.3,40.6],[-74.0,40.8],[-74.0,40.4],[-74.9,38.9],[-75.2,39.2],[-75.3,39.0],[-75.1,38.4],[-75.9,37.2],[-75.7,37.9],[-76.4,39.1],[-76.3,38.1],[-76.3,37.9],[-76.0,36.9],[-75.7,35.6],[-77.4,34.5],[-78.6,33.9],[-79.2,33.2],[-80.9,32.0],[-81.5,30.7],[-81.0,29.2],[-80.5,28.0],[-80.1,26.2],[-80.4,25.2],[-81.2,25.2],[-81.7,25.9],[-82.7,27.5],[-82.7,28.6],[-83.7,29.9],[-85.1,29.6],[-85.8,30.2],[-87.5,30.3],[-89.2,30.3],[-89.4,29.9],[-89.2,29.3],[-89.8,29.3],[-90.9,29.1],[-92.5,29.6],[-93.8,29.7],[-95.6,28.7],[-97.1,27.8],[-97.4,26.7],[-97.1,25.9],[-97.7,24.3],[-97.9,22.4],[-97.4,21.4],[-96.5,19.9],[-95.9,18.8],[-94.4,18.1],[-92.8,18.5],[-91.4,18.9],[-90.5,19.9],[-90.3,21.0],[-88.5,21.5],[-87.1,21.5],[-86.8,20.8],[-87.6,19.6],[-87.6,19.0],[-88.1,18.5],[-88.3,18.4],[-88.1,18.1],[-88.2,17.5],[-88.2,17.0],[-88.6,16.3],[-88.9,15.9],[-88.5,15.9],[-88.1,15.7],[-87.6,15.9],[-87.4,15.8],[-86.4,15.8],[-86.0,16.0],[-85.4,15.9],[-85.0,16.0],[-84.4,15.8],[-83.8,15.4],[-83.1,15.0],[-83.3,14.7],[-83.4,14.0],[-83.6,13.1],[-83.5,12.4],[-83.7,11.9],[-83.9,11.4],[-83.7,10.9],[-83.0,10.0],[-82.2,9.2],[-81.8,9.0],[-81.4,8.8],[-80.5,9.1],[-79.6,9.6],[-79.1,9.5],[-78.1,9.2],[-77.4,8.7],[-76.1,9.3],[-75.7,9.8],[-74.9,11.1],[-74.2,11.3],[-72.6,11.7],[-71.8,12.4],[-71.1,12.1],[-71.4,11.5],[-71.6,11.0],[-72.1,9.9],[-71.3,9.1],[-71.4,10.2],[-70.2,11.4],[-69.9,12.2],[-68.9,11.4],[-68.2,10.6],[-66.2,10.6],[-64.9,10.1],[-64.3,10.6],[-61.9,10.7],[-62.4,9.9],[-60.8,9.4],[-60.2,8.6],[-59.1,8.0],[-58.5,6.8],[-57.5,6.3],[-55.9,5.8],[-55.0,6.0],[-53.6,5.6],[-51.8,4.6],[-51.3,4.2],[-50.5,1.9],[-49.9,1.0],[-50.4,-0.1],[-48.6,-1.2],[-46.6,-0.9],[-44.4,-2.1],[-43.4,-2.4],[-40.0,-2.9],[-37.2,-4.8],[-35.6,-5.1],[-34.9,-6.7],[-35.1,-9.0],[-37.0,-11.0],[-38.4,-13.0],[-39.0,-13.8],[-39.2,-17.2],[-39.6,-18.3],[-40.8,-20.9],[-41.8,-22.4],[-43.1,-23.0],[-45.4,-23.8],[-47.6,-24.9],[-48.6,-26.6],[-48.7,-28.2],[-49.6,-29.2],[-51.6,-31.8],[-52.7,-33.2],[-53.8,-34.4],[-55.7,-34.8],[-57.1,-34.4],[-58.4,-33.9],[-57.2,-35.3],[-56.7,-36.4],[-57.7,-38.2],[-61.2,-38.9],[-62.1,-39.4],[-62.1,-40.7],[-63.8,-41.2],[-65.1,-41.1],[-64.3,-42.4],[-63.5,-42.6],[-65.2,-43.5],[-65.6,-45.0],[-67.3,-45.6],[-66.6,-47.0],[-66.0,-48.1],[-67.8,-49.9],[-69.1,-50.7],[-68.2,-52.4],[-69.5,-52.3],[-70.8,-52.9],[-71.4,-53.9],[-73.7,-52.8],[-75.3,-51.6],[-75.5,-50.4],[-75.2,-47.7],[-75.6,-46.6],[-74.4,-44.1],[-72.7,-42.4],[-73.7,-43.4],[-74.0,-41.8],[-73.2,-39.3],[-73.6,-37.2],[-72.6,-35.5],[-71.4,-32.4],[-71.4,-30.1],[-70.9,-27.6],[-70.4,-23.6],[-70.2,-19.8],[-71.4,-17.8],[-73.4,-16.4],[-76.0,-14.6],[-76.3,-13.5],[-78.1,-10.4],[-79.4,-7.9],[-80.5,-6.5],[-80.9,-5.7],[-81.1,-4.0],[-79.8,-2.7],[-80.4,-2.7],[-80.8,-2.0],[-80.6,-0.9],[-80.0,0.4],[-79.5,1.0],[-79.0,1.7],[-78.7,2.3],[-77.9,2.7],[-77.1,3.8],[-77.3,4.7],[-77.3,5.8],[-77.9,7.2],[-78.4,8.1],[-78.4,8.4],[-79.1,9.0],[-79.8,8.6],[-80.4,8.3],[-80.0,7.5],[-80.4,7.3],[-81.1,7.8],[-81.5,7.7],[-82.1,8.2],[-82.8,8.3],[-83.0,8.2],[-83.7,8.7],[-83.6,9.1],[-84.3,9.5],[-84.7,9.9],[-84.9,9.8],[-85.3,9.8],[-85.8,10.1],[-85.7,10.8],[-85.7,11.1],[-86.5,11.8],[-87.2,12.5],[-87.6,13.1],[-87.3,13.0],[-87.8,13.4],[-88.5,13.2],[-89.3,13.5],[-90.1,13.7],[-91.2,13.9],[-92.2,14.5],[-93.9,15.9],[-95.3,16.1],[-96.6,15.7],[-98.0,16.1],[-99.7,16.7],[-101.7,17.6],[-102.5,18.0],[-103.9,18.7],[-105.5,19.9],[-105.4,20.5],[-105.3,21.1],[-105.6,21.9],[-106.0,22.8],[-107.9,24.5],[-109.3,25.6],[-109.3,26.4],[-110.4,27.2],[-111.2,27.9],[-112.2,29.0],[-112.8,30.0],[-113.1,31.2],[-114.2,31.5],[-114.9,31.4],[-114.7,30.2],[-113.6,29.1],[-113.3,28.8],[-113.0,28.4],[-112.5,27.5],[-111.6,26.7],[-111.0,25.3],[-110.7,24.3],[-109.8,23.8],[-109.4,23.2],[-110.0,22.8],[-111.0,24.0],[-112.2,24.7],[-112.3,26.0],[-113.5,26.8],[-113.8,26.9],[-115.1,27.7],[-114.6,27.7],[-114.2,28.6],[-115.5,29.6],[-116.3,30.8],[-117.1,32.5],[-117.9,33.6],[-118.5,34.0],[-119.4,34.3],[-120.6,34.6],[-121.7,36.2],[-122.5,37.8],[-123.7,39.0],[-124.4,40.3],[-124.2,42.0],[-124.1,43.7],[-124.1,46.9],[-124.7,48.2],[-123.1,48.0],[-122.3,47.4],[-122.8,49.0],[-124.9,50.0],[-127.4,50.8],[-127.8,52.3],[-129.3,53.6],[-130.5,54.8],[-132.0,55.5],[-133.5,57.2],[-135.0,58.2],[-137.8,58.5],[-140.8,59.7],[-144.0,60.0],[-147.1,60.9],[-148.0,60.0],[-149.7,59.7],[-151.7,59.2],[-151.4,60.7],[-150.6,61.3],[-152.6,60.1],[-153.3,58.9],[-155.3,57.7],[-156.6,57.0],[-158.4,56.0],[-160.3,55.6],[-162.2,55.0],[-164.8,54.4],[-163.8,55.0],[-161.8,55.9],[-160.1,56.4],[-158.5,57.2],[-157.6,58.3],[-158.2,58.6],[-159.1,58.4],[-160.0,58.6],[-161.4,58.7],[-162.1,59.3],[-162.5,60.0],[-164.7,60.3],[-165.4,61.1],[-165.7,62.1],[-164.6,63.1],[-163.1,63.1],[-161.5,63.5],[-161.0,64.2],[-160.8,64.8],[-162.5,64.6],[-163.5,64.6],[-166.4,64.7],[-168.1,65.7],[-164.5,66.6],[-163.8,66.1],[-162.5,66.7],[-164.4,67.6],[-166.8,68.4],[-164.4,68.9],[-162.9,69.9],[-160.9,70.4],[-158.1,70.8],[-155.1,71.1],[-153.9,70.9],[-152.3,70.6],[-149.7,70.5],[-145.7,70.1],[-143.6,70.2],[-141.0,69.7],[-137.5,69.0],[-135.6,69.3],[-132.9,69.5],[-129.8,70.2],[-128.4,70.0],[-127.4,70.4],[-124.4,70.2],[-123.1,69.6],[-121.5,69.8],[-117.6,69.0],[-115.2,68.9],[-115.3,67.9],[-110.8,67.8],[-108.9,67.4],[-108.8,68.3],[-107.0,68.7],[-105.3,68.6],[-103.2,68.1],[-99.9,67.8],[-98.6,68.4],[-96.1,68.2],[-95.5,68.1],[-94.2,69.1],[-96.5,70.1],[-95.2,71.9],[-92.9,71.3],[-92.4,69.7]]]],[[[[-114.2,73.1],[-112.4,73.0],[-109.9,73.0],[-108.2,71.7],[-108.4,73.1],[-106.5,73.1],[-104.8,71.7],[-102.8,70.5],[-101.1,69.6],[-102.1,69.1],[-104.2,68.9],[-107.1,69.1],[-112.0,68.6],[-113.9,69.0],[-116.1,69.2],[-116.7,70.1],[-113.7,70.2],[-114.3,70.6],[-117.9,70.5],[-116.1,71.3],[-119.4,71.6],[-117.9,72.7],[-114.2,73.1]]]],[[[[-104.5,73.4],[-106.9,73.5],[-105.3,73.6]]]],[[[[-76.3,73.1],[-77.3,72.9],[-79.5,72.7],[-80.9,73.3],[-80.4,73.8],[-76.3,73.1]]]],[[[[-86.6,73.2],[-84.9,73.3],[-80.6,72.7],[-78.8,72.4],[-75.6,72.2],[-74.1,71.3],[-71.2,70.9],[-67.9,70.1],[-68.8,68.7],[-64.9,67.8],[-61.9,66.9],[-63.9,65.0],[-66.7,66.4],[-68.1,65.7],[-65.7,64.6],[-64.7,63.4],[-66.3,62.9],[-67.4,62.9],[-66.2,61.9],[-71.0,62.9],[-71.9,63.7],[-74.8,64.7],[-77.7,64.2],[-77.9,65.3],[-74.0,65.5],[-73.9,66.3],[-72.9,67.7],[-74.8,68.6],[-76.2,69.1],[-78.2,69.8],[-79.5,69.9],[-84.9,70.0],[-88.7,70.4],[-88.5,71.2],[-90.2,72.2],[-88.4,73.5],[-86.6,73.2]]]],[[[[-100.4,73.8],[-97.4,73.8],[-98.1,73.0],[-96.7,71.7],[-99.3,71.4],[-102.5,72.5],[-100.4,72.7],[-100.4,73.8]]]],[[[[143.6,73.2],[140.0,73.3],[140.8,73.8],[143.5,73.5]]]],[[[[-93.2,72.8],[-95.4,72.1],[-96.0,73.4],[-94.5,74.1],[-90.5,73.9],[-93.2,72.8]]]],[[[[-120.5,71.4],[-123.6,71.3],[-125.6,72.2],[-123.9,73.7],[-121.5,74.4],[-117.6,74.2],[-115.5,73.5],[-119.2,72.5],[-120.5,71.4]]]],[[[[150.7,75.1],[148.0,74.8],[146.4,75.5],[150.7,75.1]]]],[[[[-93.6,75.0],[-95.6,74.7],[-96.3,75.4],[-94.0,75.3]]]],[[[[145.1,75.6],[140.6,74.8],[137.0,75.3],[138.8,76.1],[145.1,75.6]]]],[[[[-98.5,76.7],[-97.7,75.7],[-99.8,74.9],[-100.9,75.6],[-102.6,76.3],[-100.0,76.6],[-98.5,76.7]]]],[[[[-108.2,76.2],[-106.9,76.0],[-105.7,75.5],[-109.7,74.9],[-113.7,74.4],[-111.8,75.2],[-117.7,75.2],[-115.4,76.5],[-110.8,75.5],[-110.5,76.4],[-108.6,76.7]]]],[[[[57.5,70.7],[53.7,70.8],[51.6,71.5],[52.5,72.2],[54.4,73.6],[55.9,74.6],[57.9,75.6],[64.5,76.4],[68.2,76.9],[68.2,76.2],[61.6,75.3],[57.0,73.3],[55.6,71.5]]]],[[[[-94.7,77.1],[-91.6,76.8],[-91.0,76.1],[-89.2,75.6],[-86.4,75.5],[-82.8,75.8],[-80.1,75.3],[-80.5,74.7],[-83.2,74.6],[-88.1,74.4],[-92.4,74.8],[-92.9,75.9],[-96.0,76.4],[-96.7,77.2]]]],[[[[-116.2,77.6],[-117.1,76.5],[-119.9,76.1],[-122.9,76.1],[-119.1,77.5],[-116.2,77.6]]]],[[[[-93.8,77.5],[-96.2,77.6],[-94.4,77.8],[-93.8,77.5]]]],[[[[-110.2,77.7],[-113.5,77.7],[-111.3,78.2],[-110.2,77.7]]]],[[[[24.7,77.9],[20.7,77.7],[20.8,78.3],[23.3,78.1]]]],[[[[-109.7,78.6],[-112.5,78.4],[-111.5,78.9],[-109.7,78.6]]]],[[[[-95.8,78.1],[-98.1,78.1],[-98.6,78.9],[-96.8,78.8],[-95.8,78.1]]]],[[[[-100.1,78.3],[-101.3,78.0],[-105.2,78.4],[-105.4,78.9],[-103.5,79.2],[-100.1,78.3]]]],[[[[105.1,78.3],[101.3,79.2],[102.8,79.3],[105.1,78.3]]]],[[[[18.3,79.7],[19.0,78.6],[17.6,77.6],[15.9,76.8],[14.7,77.7],[11.2,78.9],[13.2,80.0],[15.1,79.7],[17.0,80.1]]]],[[[[25.4,80.4],[25.9,79.5],[20.1,79.6],[18.5,79.9],[20.5,80.6],[22.9,80.7]]]],[[[[51.1,80.5],[48.9,80.3],[47.6,80.0],[47.1,80.6],[46.8,80.8],[48.5,80.5],[50.0,80.9],[51.1,80.5]]]],[[[[99.9,78.9],[95.0,79.0],[92.5,80.1],[93.8,81.0],[97.9,80.7],[99.9,78.9]]]],[[[[-87.0,79.7],[-87.2,79.0],[-90.8,78.2],[-94.0,78.8],[-93.1,79.4],[-96.1,79.7],[-96.0,80.6],[-94.3,81.0],[-92.4,81.3],[-89.4,80.5],[-87.0,79.7]]]],[[[[-68.5,83.1],[-63.7,82.9],[-61.9,82.4],[-66.8,81.7],[-65.5,81.5],[-69.5,80.6],[-73.2,79.6],[-76.9,79.3],[-76.2,79.0],[-76.3,78.2],[-78.4,77.5],[-79.6,77.0],[-77.9,76.8],[-83.2,76.5],[-87.6,76.4],[-89.6,77.0],[-88.3,77.9],[-85.0,77.5],[-88.0,78.4],[-85.4,79.0],[-86.5,79.7],[-84.2,80.2],[-81.8,80.5],[-87.6,80.5],[-90.2,81.3],[-91.6,81.9],[-88.9,82.1],[-85.5,82.7],[-83.2,82.3],[-81.1,83.0],[-76.3,83.2],[-72.8,83.2],[-68.5,83.1]]]],[[[[-27.1,83.5],[-22.7,82.3],[-31.9,82.2],[-27.9,82.1],[-22.9,82.1],[-23.2,81.2],[-15.8,81.9],[-12.2,81.3],[-16.8,80.3],[-17.7,80.1],[-19.7,78.8],[-18.5,77.0],[-21.7,76.6],[-19.6,75.2],[-19.4,74.3],[-20.4,73.8],[-22.2,73.3],[-22.3,72.6],[-24.3,72.6],[-23.4,72.1],[-21.8,70.7],[-24.3,70.9],[-25.2,70.8],[-23.7,70.2],[-25.0,69.3],[-30.7,68.1],[-32.8,67.7],[-36.4,66.0],[-38.4,65.7],[-40.7,64.8],[-41.2,63.5],[-42.4,61.9],[-43.4,60.1],[-46.3,60.9],[-49.2,61.4],[-51.6,63.6],[-52.3,65.2],[-53.3,66.8],[-53.0,68.4],[-51.1,69.1],[-52.0,69.6],[-53.5,69.3],[-54.8,70.3],[-53.4,70.8],[-53.1,71.2],[-55.0,71.4],[-54.7,72.6],[-56.1,73.7],[-58.6,75.1],[-61.3,76.1],[-66.1,76.1],[-69.7,76.4],[-68.8,77.3],[-71.0,77.6],[-73.2,78.4],[-65.7,79.4],[-68.0,80.1],[-63.7,81.2],[-62.6,81.8],[-57.2,82.2],[-53.0,81.9],[-48.0,82.1],[-44.5,81.7],[-46.8,82.6],[-39.9,83.2],[-35.1,83.6]]]]]}}]}